CCSDS_OMM_VERS = 2.0
CREATION_DATE  = 
ORIGINATOR     = 

OBJECT_NAME    = SHIJIAN-28 (SJ-28)
OBJECT_ID      = 2025-277A
CENTER_NAME    = EARTH
REF_FRAME      = TEME
TIME_SYSTEM    = UTC
MEAN_ELEMENT_THEORY = SGP/SGP4

EPOCH          = 2025-12-23T18:49:26.581152
MEAN_MOTION    = 1.00265987
ECCENTRICITY   = .0001017
INCLINATION    = 4.9916
RA_OF_ASC_NODE = 274.7830
ARG_OF_PERICENTER = 131.9784
MEAN_ANOMALY   = 84.9264

EPHEMERIS_TYPE = 0
CLASSIFICATION_TYPE = U
NORAD_CAT_ID   = 66549
ELEMENT_SET_NO = 999
REV_AT_EPOCH   = 39
BSTAR          = 0
MEAN_MOTION_DOT = -.337E-5
MEAN_MOTION_DDOT = 0

CCSDS_OMM_VERS = 2.0
CREATION_DATE  = 
ORIGINATOR     = 

OBJECT_NAME    = CZ-7A R/B
OBJECT_ID      = 2025-277B
CENTER_NAME    = EARTH
REF_FRAME      = TEME
TIME_SYSTEM    = UTC
MEAN_ELEMENT_THEORY = SGP/SGP4

EPOCH          = 2025-12-18T08:54:45.891072
MEAN_MOTION    = 2.88841840
ECCENTRICITY   = .6879086
INCLINATION    = 14.3533
RA_OF_ASC_NODE = 266.9093
ARG_OF_PERICENTER = 194.6822
MEAN_ANOMALY   = 125.1782

EPHEMERIS_TYPE = 0
CLASSIFICATION_TYPE = U
NORAD_CAT_ID   = 66550
ELEMENT_SET_NO = 999
REV_AT_EPOCH   = 50
BSTAR          = .30391E-2
MEAN_MOTION_DOT = .266328E-1
MEAN_MOTION_DDOT = .14058E-5

CCSDS_OMM_VERS = 2.0
CREATION_DATE  = 
ORIGINATOR     = 

OBJECT_NAME    = USA 568
OBJECT_ID      = 2024-134K
CENTER_NAME    = EARTH
REF_FRAME      = TEME
TIME_SYSTEM    = UTC
MEAN_ELEMENT_THEORY = SGP/SGP4

EPOCH          = 2025-12-02T16:00:03.000096
MEAN_MOTION    = 15.87051116
ECCENTRICITY   = .0000717
INCLINATION    = 53.1571
RA_OF_ASC_NODE = 236.7807
ARG_OF_PERICENTER = 110.7411
MEAN_ANOMALY   = 313.9012

EPHEMERIS_TYPE = 0
CLASSIFICATION_TYPE = U
NORAD_CAT_ID   = 66551
ELEMENT_SET_NO = 999
REV_AT_EPOCH   = 262
BSTAR          = -.74303E-2
MEAN_MOTION_DOT = -.1709685E-1
MEAN_MOTION_DDOT = 0

CCSDS_OMM_VERS = 2.0
CREATION_DATE  = 
ORIGINATOR     = 

OBJECT_NAME    = GLOBAL-33
OBJECT_ID      = 2025-267A
CENTER_NAME    = EARTH
REF_FRAME      = TEME
TIME_SYSTEM    = UTC
MEAN_ELEMENT_THEORY = SGP/SGP4

EPOCH          = 2025-12-23T05:27:35.304480
MEAN_MOTION    = 15.31694249
ECCENTRICITY   = .00043548
INCLINATION    = 42.0212
RA_OF_ASC_NODE = 356.4455
ARG_OF_PERICENTER = 164.9071
MEAN_ANOMALY   = 195.1897

EPHEMERIS_TYPE = 0
CLASSIFICATION_TYPE = U
NORAD_CAT_ID   = 66554
ELEMENT_SET_NO = 999
REV_AT_EPOCH   = 501
BSTAR          = .45045081E-3
MEAN_MOTION_DOT = .13861E-3
MEAN_MOTION_DDOT = 0

CCSDS_OMM_VERS = 2.0
CREATION_DATE  = 
ORIGINATOR     = 

OBJECT_NAME    = STARLINK-35699
OBJECT_ID      = 2025-268A
CENTER_NAME    = EARTH
REF_FRAME      = TEME
TIME_SYSTEM    = UTC
MEAN_ELEMENT_THEORY = SGP/SGP4

EPOCH          = 2025-12-23T20:00:01.000224
MEAN_MOTION    = 15.46444767
ECCENTRICITY   = .0001016
INCLINATION    = 42.9999
RA_OF_ASC_NODE = 56.2287
ARG_OF_PERICENTER = 270.4905
MEAN_ANOMALY   = 306.9656

EPHEMERIS_TYPE = 0
CLASSIFICATION_TYPE = U
NORAD_CAT_ID   = 66557
ELEMENT_SET_NO = 999
REV_AT_EPOCH   = 607
BSTAR          = -.46512E-1
MEAN_MOTION_DOT = -.2093552E-1
MEAN_MOTION_DDOT = 0

CCSDS_OMM_VERS = 2.0
CREATION_DATE  = 
ORIGINATOR     = 

OBJECT_NAME    = STARLINK-35695
OBJECT_ID      = 2025-268B
CENTER_NAME    = EARTH
REF_FRAME      = TEME
TIME_SYSTEM    = UTC
MEAN_ELEMENT_THEORY = SGP/SGP4

EPOCH          = 2025-12-23T20:00:01.000224
MEAN_MOTION    = 15.47270321
ECCENTRICITY   = .0001208
INCLINATION    = 43.0005
RA_OF_ASC_NODE = 56.2088
ARG_OF_PERICENTER = 273.2712
MEAN_ANOMALY   = 312.5275

EPHEMERIS_TYPE = 0
CLASSIFICATION_TYPE = U
NORAD_CAT_ID   = 66558
ELEMENT_SET_NO = 999
REV_AT_EPOCH   = 607
BSTAR          = -.45007E-1
MEAN_MOTION_DOT = -.2086211E-1
MEAN_MOTION_DDOT = 0

CCSDS_OMM_VERS = 2.0
CREATION_DATE  = 
ORIGINATOR     = 

OBJECT_NAME    = STARLINK-35419
OBJECT_ID      = 2025-268C
CENTER_NAME    = EARTH
REF_FRAME      = TEME
TIME_SYSTEM    = UTC
MEAN_ELEMENT_THEORY = SGP/SGP4

EPOCH          = 2025-12-23T20:00:01.000224
MEAN_MOTION    = 15.52402104
ECCENTRICITY   = .0001175
INCLINATION    = 43.0007
RA_OF_ASC_NODE = 56.1385
ARG_OF_PERICENTER = 270.4018
MEAN_ANOMALY   = 344.4189

EPHEMERIS_TYPE = 0
CLASSIFICATION_TYPE = U
NORAD_CAT_ID   = 66559
ELEMENT_SET_NO = 999
REV_AT_EPOCH   = 607
BSTAR          = -.37486E-1
MEAN_MOTION_DOT = -.2087494E-1
MEAN_MOTION_DDOT = 0

CCSDS_OMM_VERS = 2.0
CREATION_DATE  = 
ORIGINATOR     = 

OBJECT_NAME    = STARLINK-35411
OBJECT_ID      = 2025-268D
CENTER_NAME    = EARTH
REF_FRAME      = TEME
TIME_SYSTEM    = UTC
MEAN_ELEMENT_THEORY = SGP/SGP4

EPOCH          = 2025-12-23T20:00:01.000224
MEAN_MOTION    = 15.52940561
ECCENTRICITY   = .0001135
INCLINATION    = 43.0000
RA_OF_ASC_NODE = 56.1300
ARG_OF_PERICENTER = 268.2664
MEAN_ANOMALY   = 350.0688

EPHEMERIS_TYPE = 0
CLASSIFICATION_TYPE = U
NORAD_CAT_ID   = 66560
ELEMENT_SET_NO = 999
REV_AT_EPOCH   = 607
BSTAR          = -.37018E-1
MEAN_MOTION_DOT = -.2100663E-1
MEAN_MOTION_DDOT = 0

CCSDS_OMM_VERS = 2.0
CREATION_DATE  = 
ORIGINATOR     = 

OBJECT_NAME    = STARLINK-35305
OBJECT_ID      = 2025-268E
CENTER_NAME    = EARTH
REF_FRAME      = TEME
TIME_SYSTEM    = UTC
MEAN_ELEMENT_THEORY = SGP/SGP4

EPOCH          = 2025-12-23T20:00:01.000224
MEAN_MOTION    = 15.54626387
ECCENTRICITY   = .0001475
INCLINATION    = 43.0003
RA_OF_ASC_NODE = 56.1104
ARG_OF_PERICENTER = 265.6214
MEAN_ANOMALY   = 0.1171

EPHEMERIS_TYPE = 0
CLASSIFICATION_TYPE = U
NORAD_CAT_ID   = 66561
ELEMENT_SET_NO = 999
REV_AT_EPOCH   = 607
BSTAR          = -.3513E-1
MEAN_MOTION_DOT = -.2119156E-1
MEAN_MOTION_DDOT = 0

CCSDS_OMM_VERS = 2.0
CREATION_DATE  = 
ORIGINATOR     = 

OBJECT_NAME    = STARLINK-35579
OBJECT_ID      = 2025-268F
CENTER_NAME    = EARTH
REF_FRAME      = TEME
TIME_SYSTEM    = UTC
MEAN_ELEMENT_THEORY = SGP/SGP4

EPOCH          = 2025-12-23T20:00:01.000224
MEAN_MOTION    = 15.53785421
ECCENTRICITY   = .0001424
INCLINATION    = 43.0004
RA_OF_ASC_NODE = 56.1191
ARG_OF_PERICENTER = 271.2062
MEAN_ANOMALY   = 351.1117

EPHEMERIS_TYPE = 0
CLASSIFICATION_TYPE = U
NORAD_CAT_ID   = 66562
ELEMENT_SET_NO = 999
REV_AT_EPOCH   = 607
BSTAR          = -.36179E-1
MEAN_MOTION_DOT = -.2116038E-1
MEAN_MOTION_DDOT = 0

CCSDS_OMM_VERS = 2.0
CREATION_DATE  = 
ORIGINATOR     = 

OBJECT_NAME    = STARLINK-35437
OBJECT_ID      = 2025-268G
CENTER_NAME    = EARTH
REF_FRAME      = TEME
TIME_SYSTEM    = UTC
MEAN_ELEMENT_THEORY = SGP/SGP4

EPOCH          = 2025-12-23T20:00:01.000224
MEAN_MOTION    = 15.55473321
ECCENTRICITY   = .0001563
INCLINATION    = 43.0005
RA_OF_ASC_NODE = 56.1028
ARG_OF_PERICENTER = 264.6439
MEAN_ANOMALY   = 3.9514

EPHEMERIS_TYPE = 0
CLASSIFICATION_TYPE = U
NORAD_CAT_ID   = 66563
ELEMENT_SET_NO = 999
REV_AT_EPOCH   = 607
BSTAR          = -.34295E-1
MEAN_MOTION_DOT = -.2133276E-1
MEAN_MOTION_DDOT = 0

CCSDS_OMM_VERS = 2.0
CREATION_DATE  = 
ORIGINATOR     = 

OBJECT_NAME    = STARLINK-35358
OBJECT_ID      = 2025-268H
CENTER_NAME    = EARTH
REF_FRAME      = TEME
TIME_SYSTEM    = UTC
MEAN_ELEMENT_THEORY = SGP/SGP4

EPOCH          = 2025-12-23T20:00:01.000224
MEAN_MOTION    = 15.56308080
ECCENTRICITY   = .0001509
INCLINATION    = 43.0005
RA_OF_ASC_NODE = 56.0975
ARG_OF_PERICENTER = 273.9577
MEAN_ANOMALY   = 356.9367

EPHEMERIS_TYPE = 0
CLASSIFICATION_TYPE = U
NORAD_CAT_ID   = 66564
ELEMENT_SET_NO = 999
REV_AT_EPOCH   = 607
BSTAR          = -.3312E-1
MEAN_MOTION_DOT = -.2126462E-1
MEAN_MOTION_DDOT = 0

