SHIJIAN-28 (SJ-28)      
1 66549U 25277A   25357.78433543 -.00000337  00000+0  00000+0 0  9994
2 66549   4.9916 274.7830 0001017 131.9784  84.9264  1.00265987   397
CZ-7A R/B               
1 66550U 25277B   25352.37136448  .02663280  14058-5  30391-2 0  9996
2 66550  14.3533 266.9093 6879086 194.6822 125.1782  2.88841840   508
USA 568                 
1 66551U 24134K   25336.66670139 -.01709685  00000+0 -74303-2 0  9990
2 66551  53.1571 236.7807 0000717 110.7411 313.9012 15.87051116  2624
GLOBAL-33               
1 66554U 25267A   25357.22749195  .00013861  00000+0  45045-3 0  9998
2 66554  42.0212 356.4455 0004354 164.9071 195.1897 15.31694249  5015
STARLINK-35699          
1 66557U 25268A   25357.83334491 -.02093552  00000+0 -46512-1 0  9995
2 66557  42.9999  56.2287 0001016 270.4905 306.9656 15.46444767  6074
STARLINK-35695          
1 66558U 25268B   25357.83334491 -.02086211  00000+0 -45007-1 0  9998
2 66558  43.0005  56.2088 0001208 273.2712 312.5275 15.47270321  6078
STARLINK-35419          
1 66559U 25268C   25357.83334491 -.02087494  00000+0 -37486-1 0  9995
2 66559  43.0007  56.1385 0001175 270.4018 344.4189 15.52402104  6071
STARLINK-35411          
1 66560U 25268D   25357.83334491 -.02100663  00000+0 -37018-1 0  9992
2 66560  43.0000  56.1300 0001135 268.2664 350.0688 15.52940561  6072
STARLINK-35305          
1 66561U 25268E   25357.83334491 -.02119156  00000+0 -35130-1 0  9993
2 66561  43.0003  56.1104 0001475 265.6214   0.1171 15.54626387  6076
STARLINK-35579          
1 66562U 25268F   25357.83334491 -.02116038  00000+0 -36179-1 0  9994
2 66562  43.0004  56.1191 0001424 271.2062 351.1117 15.53785421  6075
STARLINK-35437          
1 66563U 25268G   25357.83334491 -.02133276  00000+0 -34295-1 0  9995
2 66563  43.0005  56.1028 0001563 264.6439   3.9514 15.55473321  6072
STARLINK-35358          
1 66564U 25268H   25357.83334491 -.02126462  00000+0 -33120-1 0  9991
2 66564  43.0005  56.0975 0001509 273.9577 356.9367 15.56308080  6076
